{"format":"tle-catalog-v1","generatedAt":"2026-07-01T14:19:31.438Z","count":19018,"entries":[{"name":"2015-049G","line1":"1 40905U 15049G   26182.16184970  .00054559  00000+0  49994-3 0  9997","line2":"2 40905  97.4539 227.0858 0006513 152.0068 208.1544 15.67589512598630"},{"name":"AISAT","line1":"1 40054U 14034B   26182.02286866  .00012177  00000+0  77141-3 0  9992","line2":"2 40054  98.2387  95.4404 0009549 163.9785 196.1746 15.09087423649297"},{"name":"BRITE-PL2 (HEWELIUSZ)","line1":"1 40119U 14049B   26182.09754052  .00001766  00000+0  16817-3 0  9999","line2":"2 40119  97.9111 294.2059 0015147  65.9668 294.3135 14.94644692643520"},{"name":"CANX-4","line1":"1 40055U 14034C   26182.13474294  .00001044  00000+0  14105-3 0  9991","line2":"2 40055  98.3104  57.9588 0012110 332.0685  27.9875 14.81290098646595"},{"name":"CANX-5","line1":"1 40056U 14034D   26182.13301356  .00001045  00000+0  14110-3 0  9997","line2":"2 40056  98.3105  58.0014 0012115 332.2670  27.7894 14.81307390637407"},{"name":"CARBONITE 1 (CBNT-1)","line1":"1 40718U 15032D   26182.21102622  .00001170  00000+0  14779-3 0  9995","line2":"2 40718  97.6506 359.6903 0012941 246.9139 113.0711 14.83628235591428"},{"name":"CBERS 4","line1":"1 40336U 14079A   26182.18668939  .00000051  00000+0  32335-4 0  9991","line2":"2 40336  98.3528 238.5787 0001371  53.1499 306.9812 14.35512667605961"},{"name":"COSMOS 2507 (RODNIK-S *)","line1":"1 40920U 15050A   26182.15776148  .00000074  00000+0  46050-3 0  9992","line2":"2 40920  82.4924  70.9725 0009553 326.2975  33.7496 12.42927140488590"},{"name":"COSMOS 2508 (RODNIK-S *)","line1":"1 40921U 15050B   26182.19341124  .00000073  00000+0  45795-3 0  9993","line2":"2 40921  82.4877  69.4501 0014570 357.5889   2.5118 12.42914655488580"},{"name":"COSMOS 2509 (RODNIK-S *)","line1":"1 40922U 15050C   26182.13359812 -.00000005  00000+0 -10799-3 0  9994","line2":"2 40922  82.4885  69.5911 0015232  14.3044 345.8463 12.42883852488617"},{"name":"DEORBITSAIL","line1":"1 40719U 15032E   26182.12940830  .00010102  00000+0  73260-3 0  9992","line2":"2 40719  97.5888  38.6943 0012734 178.4821 181.6446 15.04057009593344"},{"name":"DMC3-FM1","line1":"1 40715U 15032A   26182.14634156  .00000032  00000+0  95453-5 0  9992","line2":"2 40715  97.6446  46.7732 0006249  22.0288 338.1195 14.85752552591983"},{"name":"DMC3-FM2","line1":"1 40716U 15032B   26182.16833976  .00000318  00000+0  42493-4 0  9998","line2":"2 40716  97.6498  48.3774 0006823  25.2487 334.9061 14.85757988591983"},{"name":"DMC3-FM3","line1":"1 40717U 15032C   26182.19176558  .00000944  00000+0  11462-3 0  9994","line2":"2 40717  97.6551  50.1621 0006008  27.6466 332.5068 14.85749586591991"},{"name":"DTUSAT-2","line1":"1 40030U 14033W   26181.97499411  .00007517  00000+0  40401-3 0  9991","line2":"2 40030  98.0860 180.5791 0008120 175.0071 185.1242 15.15189849654776"},{"name":"DX1","line1":"1 40071U 14037C   26182.12813465  .00002237  00000+0  23821-3 0  9998","line2":"2 40071  98.3873 144.6769 0005905 218.6784 141.4009 14.90029167648189"},{"name":"GAOFEN-2","line1":"1 40118U 14049A   26182.16279463  .00000404  00000+0  59133-4 0  9991","line2":"2 40118  98.0110 246.3565 0007122 176.9061 183.2196 14.80913366641303"},{"name":"GONETS-M 10","line1":"1 40063U 14036C   26182.15679100  .00000073  00000+0  45035-3 0  9994","line2":"2 40063  82.5127 298.9969 0022976 111.4784 248.8749 12.42946093543985"},{"name":"GONETS-M 11","line1":"1 40552U 15020A   26182.17593341 -.00000033  00000+0 -30594-3 0  9997","line2":"2 40552  82.4858  22.2737 0015902 335.3309  24.7009 12.42877776510479"},{"name":"GONETS-M 12","line1":"1 40553U 15020B   26182.14927204 -.00000015  00000+0 -17991-3 0  9990","line2":"2 40553  82.4891  23.4180 0014657 319.8822  40.1174 12.42891586510464"},{"name":"GONETS-M 13","line1":"1 40554U 15020C   26182.12298706  .00000033  00000+0  17032-3 0  9991","line2":"2 40554  82.4853  22.0452 0013045 304.5236  55.4612 12.42871496510431"},{"name":"LILACSAT-2","line1":"1 40908U 15049K   26182.20195277  .00021050  00000+0  35196-3 0  9996","line2":"2 40908  97.4624 219.5789 0006988 185.9115 174.2056 15.51907405597921"},{"name":"METEOR-M 2","line1":"1 40069U 14037A   26182.22359027  .00000093  00000+0  61649-4 0  9994","line2":"2 40069  98.5116 157.4653 0006069   8.4683 351.6596 14.21465158621317"},{"name":"PERSEUS-M1","line1":"1 40039U 14033AF  26181.81790235  .00001294  00000+0  12172-3 0  9991","line2":"2 40039  97.9649 126.1740 0009996 250.1954 109.8189 14.95677159652678"},{"name":"POLYITAN-1","line1":"1 40042U 14033AJ  26182.01632331  .00024693  00000+0  75688-3 0  9999","line2":"2 40042  98.0934 209.5896 0008765 103.7335 256.4882 15.33748213655718"},{"name":"QB50P1","line1":"1 40025U 14033R   26181.98950830  .00010029  00000+0  48959-3 0  9991","line2":"2 40025  98.0957 194.1047 0009267 167.8824 192.2633 15.18468022655129"},{"name":"QB50P2","line1":"1 40032U 14033Y   26180.97746561  .00007152  00000+0  38307-3 0  9990","line2":"2 40032  98.0748 178.6550 0009096 125.6149 234.5930 15.15322126654606"},{"name":"SMAP","line1":"1 40376U 15003A   26182.16536642  .00000494  00000+0  10458-3 0  9998","line2":"2 40376  98.1277 189.0618 0001462  97.4679 262.6689 14.63379048609665"},{"name":"TIGRISAT","line1":"1 40043U 14033AK  26182.06202209  .00001881  00000+0  22092-3 0  9997","line2":"2 40043  97.7848 331.7571 0049817  30.6226 329.7880 14.85211339647686"},{"name":"UKUBE-1","line1":"1 40074U 14037F   26181.98446889  .00008844  00000+0  49444-3 0  9995","line2":"2 40074  98.4232 186.7078 0003194 110.8073 249.3498 15.13760861650647"},{"name":"VELOX-I","line1":"1 40057U 14034E   26182.15304106  .00005662  00000+0  48468-3 0  9998","line2":"2 40057  98.2531  87.9476 0006086 209.9028 150.1845 14.98005136648691"}]}