OBJECT_NAME,OBJECT_ID,EPOCH,MEAN_MOTION,ECCENTRICITY,INCLINATION,RA_OF_ASC_NODE,ARG_OF_PERICENTER,MEAN_ANOMALY,EPHEMERIS_TYPE,CLASSIFICATION_TYPE,NORAD_CAT_ID,ELEMENT_SET_NO,REV_AT_EPOCH,BSTAR,MEAN_MOTION_DOT,MEAN_MOTION_DDOT
QB50P1,2014-033R,2026-06-30T23:44:53.517120,15.18468022,.0009267,98.0957,194.1047,167.8824,192.2633,0,U,40025,999,65512,.48959E-3,.10029E-3,0
DTUSAT-2,2014-033W,2026-06-30T23:23:59.491104,15.15189849,.000812,98.0860,180.5791,175.0071,185.1242,0,U,40030,999,65477,.40401E-3,.7517E-4,0
QB50P2,2014-033Y,2026-06-29T23:27:33.028704,15.15322126,.00090963,98.0748,178.6550,125.6149,234.5930,0,U,40032,999,65460,.3830701E-3,.7152E-4,0
PERSEUS-M1,2014-033AF,2026-06-30T19:37:46.763040,14.95677159,.00099965,97.9649,126.1740,250.1954,109.8189,0,U,40039,999,65267,.12171915E-3,.1294E-4,0
POLYITAN-1,2014-033AJ,2026-07-01T00:23:30.333984,15.33748213,.0008765,98.0934,209.5896,103.7335,256.4882,0,U,40042,999,65571,.75688E-3,.24693E-3,0
TIGRISAT,2014-033AK,2026-07-01T01:29:18.708576,14.85211339,.0049817,97.7848,331.7571,30.6226,329.7880,0,U,40043,999,64768,.22092E-3,.1881E-4,0
AISAT,2014-034B,2026-07-01T00:32:55.852224,15.09087423,.0009549,98.2387,95.4404,163.9785,196.1746,0,U,40054,999,64929,.77141E-3,.12177E-3,0
CANX-4,2014-034C,2026-07-01T03:14:01.790016,14.81290098,.001211,98.3104,57.9588,332.0685,27.9875,0,U,40055,999,64659,.14105E-3,.1044E-4,0
CANX-5,2014-034D,2026-07-01T03:11:32.371584,14.81307390,.0012115,98.3105,58.0014,332.2670,27.7894,0,U,40056,999,63740,.1411E-3,.1045E-4,0
VELOX-I,2014-034E,2026-07-01T03:40:22.747584,14.98005136,.0006086,98.2531,87.9476,209.9028,150.1845,0,U,40057,999,64869,.48468E-3,.5662E-4,0
GONETS-M 10,2014-036C,2026-07-01T03:45:46.742400,12.42946093,.0022976,82.5127,298.9969,111.4784,248.8749,0,U,40063,999,54398,.45035E-3,.73E-6,0
METEOR-M 2,2014-037A,2026-07-01T05:21:58.199328,14.21465158,.0006069,98.5116,157.4653,8.4683,351.6596,0,U,40069,999,62131,.61649E-4,.93E-6,0
DX1,2014-037C,2026-07-01T03:04:30.833760,14.90029167,.0005905,98.3873,144.6769,218.6784,141.4009,0,U,40071,999,64818,.23821E-3,.2237E-4,0
UKUBE-1,2014-037F,2026-06-30T23:37:38.112096,15.13760861,.0003194,98.4232,186.7078,110.8073,249.3498,0,U,40074,999,65064,.49444E-3,.8844E-4,0
GAOFEN-2,2014-049A,2026-07-01T03:54:25.456032,14.80913366,.0007122,98.0110,246.3565,176.9061,183.2196,0,U,40118,999,64130,.59133E-4,.404E-5,0
BRITE-PL2 (HEWELIUSZ),2014-049B,2026-07-01T02:20:27.500928,14.94644692,.0015147,97.9111,294.2059,65.9668,294.3135,0,U,40119,999,64352,.16817E-3,.1766E-4,0
CBERS 4,2014-079A,2026-07-01T04:28:49.963296,14.35512667,.0001371,98.3528,238.5787,53.1499,306.9812,0,U,40336,999,60596,.32335E-4,.51E-6,0
SMAP,2015-003A,2026-07-01T03:58:07.658688,14.63379048,.0001462,98.1277,189.0618,97.4679,262.6689,0,U,40376,999,60966,.10458E-3,.494E-5,0
GONETS-M 11,2015-020A,2026-07-01T04:13:20.646624,12.42877776,.0015902,82.4858,22.2737,335.3309,24.7009,0,U,40552,999,51047,-.30594E-3,-.33E-6,0
GONETS-M 12,2015-020B,2026-07-01T03:34:57.104256,12.42891586,.0014657,82.4891,23.4180,319.8822,40.1174,0,U,40553,999,51046,-.17991E-3,-.15E-6,0
GONETS-M 13,2015-020C,2026-07-01T02:57:06.081984,12.42871496,.0013045,82.4853,22.0452,304.5236,55.4612,0,U,40554,999,51043,.17032E-3,.33E-6,0
DMC3-FM1,2015-032A,2026-07-01T03:30:43.910784,14.85752552,.0006249,97.6446,46.7732,22.0288,338.1195,0,U,40715,999,59198,.95453E-5,.32E-6,0
DMC3-FM2,2015-032B,2026-07-01T04:02:24.555264,14.85757988,.0006823,97.6498,48.3774,25.2487,334.9061,0,U,40716,999,59198,.42493E-4,.318E-5,0
DMC3-FM3,2015-032C,2026-07-01T04:36:08.546112,14.85749586,.0006008,97.6551,50.1621,27.6466,332.5068,0,U,40717,999,59199,.11462E-3,.944E-5,0
CARBONITE 1 (CBNT-1),2015-032D,2026-07-01T05:03:52.665408,14.83628235,.0012941,97.6506,359.6903,246.9139,113.0711,0,U,40718,999,59142,.14779E-3,.117E-4,0
DEORBITSAIL,2015-032E,2026-07-01T03:06:20.877120,15.04057009,.0012734,97.5888,38.6943,178.4821,181.6446,0,U,40719,999,59334,.7326E-3,.10102E-3,0
2015-049G,2015-049G,2026-07-01T03:53:03.814080,15.67589512,.0006513,97.4539,227.0858,152.0068,208.1544,0,U,40905,999,59863,.49994E-3,.54559E-3,0
LILACSAT-2,2015-049K,2026-07-01T04:50:48.719328,15.51907405,.0006988,97.4624,219.5789,185.9115,174.2056,0,U,40908,999,59792,.35196E-3,.2105E-3,0
COSMOS 2507 (RODNIK-S 13),2015-050A,2026-07-01T03:47:10.591872,12.42927140,.0009553,82.4924,70.9725,326.2975,33.7496,0,U,40920,999,48859,.4605E-3,.74E-6,0
COSMOS 2508 (RODNIK-S 14),2015-050B,2026-07-01T04:38:30.731136,12.42914655,.001457,82.4877,69.4501,357.5889,2.5118,0,U,40921,999,48858,.45795E-3,.73E-6,0
COSMOS 2509 (RODNIK-S 15),2015-050C,2026-07-01T03:12:22.877568,12.42883852,.0015232,82.4885,69.5911,14.3044,345.8463,0,U,40922,999,48861,-.10799E-3,-.5E-7,0
